CCSDS_OMM_VERS = 2.0
CREATION_DATE  = 
ORIGINATOR     = 

OBJECT_NAME    = CYGNUS NG-23
OBJECT_ID      = 2025-208A
CENTER_NAME    = EARTH
REF_FRAME      = TEME
TIME_SYSTEM    = UTC
MEAN_ELEMENT_THEORY = SGP/SGP4

EPOCH          = 2026-01-07T20:31:08.770368
MEAN_MOTION    = 15.49160932
ECCENTRICITY   = .00076245
INCLINATION    = 51.6332
RA_OF_ASC_NODE = 13.1773
ARG_OF_PERICENTER = 352.7234
MEAN_ANOMALY   = 7.3643

EPHEMERIS_TYPE = 0
CLASSIFICATION_TYPE = U
NORAD_CAT_ID   = 65616
ELEMENT_SET_NO = 999
REV_AT_EPOCH   = 22
BSTAR          = .15591257E-3
MEAN_MOTION_DOT = .8201E-4
MEAN_MOTION_DDOT = 0

CCSDS_OMM_VERS = 2.0
CREATION_DATE  = 
ORIGINATOR     = 

OBJECT_NAME    = DRAGONFLY
OBJECT_ID      = 1998-067XH
CENTER_NAME    = EARTH
REF_FRAME      = TEME
TIME_SYSTEM    = UTC
MEAN_ELEMENT_THEORY = SGP/SGP4

EPOCH          = 2026-01-07T06:36:55.142208
MEAN_MOTION    = 15.84068835
ECCENTRICITY   = .0008576
INCLINATION    = 51.6233
RA_OF_ASC_NODE = 4.0046
ARG_OF_PERICENTER = 65.0899
MEAN_ANOMALY   = 295.0995

EPHEMERIS_TYPE = 0
CLASSIFICATION_TYPE = U
NORAD_CAT_ID   = 65729
ELEMENT_SET_NO = 999
REV_AT_EPOCH   = 1719
BSTAR          = .12894E-2
MEAN_MOTION_DOT = .306648E-2
MEAN_MOTION_DDOT = 0

CCSDS_OMM_VERS = 2.0
CREATION_DATE  = 
ORIGINATOR     = 

OBJECT_NAME    = 1998-067XK
OBJECT_ID      = 1998-067XK
CENTER_NAME    = EARTH
REF_FRAME      = TEME
TIME_SYSTEM    = UTC
MEAN_ELEMENT_THEORY = SGP/SGP4

EPOCH          = 2026-01-07T05:16:38.472672
MEAN_MOTION    = 15.71835382
ECCENTRICITY   = .0005063
INCLINATION    = 51.6286
RA_OF_ASC_NODE = 7.4337
ARG_OF_PERICENTER = 39.6016
MEAN_ANOMALY   = 320.5351

EPHEMERIS_TYPE = 0
CLASSIFICATION_TYPE = U
NORAD_CAT_ID   = 65731
ELEMENT_SET_NO = 999
REV_AT_EPOCH   = 1714
BSTAR          = .92214E-3
MEAN_MOTION_DOT = .123601E-2
MEAN_MOTION_DDOT = 0

CCSDS_OMM_VERS = 2.0
CREATION_DATE  = 
ORIGINATOR     = 

OBJECT_NAME    = RSP-03
OBJECT_ID      = 1998-067XL
CENTER_NAME    = EARTH
REF_FRAME      = TEME
TIME_SYSTEM    = UTC
MEAN_ELEMENT_THEORY = SGP/SGP4

EPOCH          = 2026-01-08T04:13:27.526656
MEAN_MOTION    = 15.77459056
ECCENTRICITY   = .0006243
INCLINATION    = 51.6257
RA_OF_ASC_NODE = 1.0430
ARG_OF_PERICENTER = 52.4563
MEAN_ANOMALY   = 307.7004

EPHEMERIS_TYPE = 0
CLASSIFICATION_TYPE = U
NORAD_CAT_ID   = 65732
ELEMENT_SET_NO = 999
REV_AT_EPOCH   = 1732
BSTAR          = .10693E-2
MEAN_MOTION_DOT = .184575E-2
MEAN_MOTION_DDOT = 0

CCSDS_OMM_VERS = 2.0
CREATION_DATE  = 
ORIGINATOR     = 

OBJECT_NAME    = GHS-01
OBJECT_ID      = 1998-067XM
CENTER_NAME    = EARTH
REF_FRAME      = TEME
TIME_SYSTEM    = UTC
MEAN_ELEMENT_THEORY = SGP/SGP4

EPOCH          = 2026-01-07T08:09:50.150592
MEAN_MOTION    = 15.92234495
ECCENTRICITY   = .00091221
INCLINATION    = 51.6249
RA_OF_ASC_NODE = 2.1848
ARG_OF_PERICENTER = 72.4376
MEAN_ANOMALY   = 287.7626

EPHEMERIS_TYPE = 0
CLASSIFICATION_TYPE = U
NORAD_CAT_ID   = 65733
ELEMENT_SET_NO = 999
REV_AT_EPOCH   = 1723
BSTAR          = .1480688E-2
MEAN_MOTION_DOT = .508707E-2
MEAN_MOTION_DDOT = .11218926E-3

CCSDS_OMM_VERS = 2.0
CREATION_DATE  = 
ORIGINATOR     = 

OBJECT_NAME    = YOTSUBA-KULOVER
OBJECT_ID      = 1998-067XN
CENTER_NAME    = EARTH
REF_FRAME      = TEME
TIME_SYSTEM    = UTC
MEAN_ELEMENT_THEORY = SGP/SGP4

EPOCH          = 2026-01-07T22:53:25.454976
MEAN_MOTION    = 15.63732803
ECCENTRICITY   = .00039022
INCLINATION    = 51.6291
RA_OF_ASC_NODE = 7.8415
ARG_OF_PERICENTER = 70.4070
MEAN_ANOMALY   = 289.7346

EPHEMERIS_TYPE = 0
CLASSIFICATION_TYPE = U
NORAD_CAT_ID   = 65941
ELEMENT_SET_NO = 999
REV_AT_EPOCH   = 1395
BSTAR          = .80288233E-3
MEAN_MOTION_DOT = .767E-3
MEAN_MOTION_DDOT = 0

CCSDS_OMM_VERS = 2.0
CREATION_DATE  = 
ORIGINATOR     = 

OBJECT_NAME    = BOTAN
OBJECT_ID      = 1998-067XP
CENTER_NAME    = EARTH
REF_FRAME      = TEME
TIME_SYSTEM    = UTC
MEAN_ELEMENT_THEORY = SGP/SGP4

EPOCH          = 2026-01-07T22:43:04.046304
MEAN_MOTION    = 15.69784630
ECCENTRICITY   = .00046775
INCLINATION    = 51.6269
RA_OF_ASC_NODE = 6.2860
ARG_OF_PERICENTER = 64.0992
MEAN_ANOMALY   = 296.0487

EPHEMERIS_TYPE = 0
CLASSIFICATION_TYPE = U
NORAD_CAT_ID   = 65942
ELEMENT_SET_NO = 999
REV_AT_EPOCH   = 1397
BSTAR          = .11162619E-2
MEAN_MOTION_DOT = .13761E-2
MEAN_MOTION_DDOT = 0

CCSDS_OMM_VERS = 2.0
CREATION_DATE  = 
ORIGINATOR     = 

OBJECT_NAME    = E-KAGAKU-1
OBJECT_ID      = 1998-067XQ
CENTER_NAME    = EARTH
REF_FRAME      = TEME
TIME_SYSTEM    = UTC
MEAN_ELEMENT_THEORY = SGP/SGP4

EPOCH          = 2026-01-07T06:00:57.009312
MEAN_MOTION    = 15.63633295
ECCENTRICITY   = .00024128
INCLINATION    = 51.6305
RA_OF_ASC_NODE = 11.4021
ARG_OF_PERICENTER = 61.6805
MEAN_ANOMALY   = 298.4433

EPHEMERIS_TYPE = 0
CLASSIFICATION_TYPE = U
NORAD_CAT_ID   = 65943
ELEMENT_SET_NO = 999
REV_AT_EPOCH   = 1384
BSTAR          = .78199395E-3
MEAN_MOTION_DOT = .74361E-3
MEAN_MOTION_DDOT = 0

CCSDS_OMM_VERS = 2.0
CREATION_DATE  = 
ORIGINATOR     = 

OBJECT_NAME    = HRC MONOBLOCK CAMERA
OBJECT_ID      = 1998-067XR
CENTER_NAME    = EARTH
REF_FRAME      = TEME
TIME_SYSTEM    = UTC
MEAN_ELEMENT_THEORY = SGP/SGP4

EPOCH          = 2026-01-08T04:35:11.295744
MEAN_MOTION    = 15.56196674
ECCENTRICITY   = .0001238
INCLINATION    = 51.6311
RA_OF_ASC_NODE = 9.4243
ARG_OF_PERICENTER = 331.8212
MEAN_ANOMALY   = 28.2713

EPHEMERIS_TYPE = 0
CLASSIFICATION_TYPE = U
NORAD_CAT_ID   = 66052
ELEMENT_SET_NO = 999
REV_AT_EPOCH   = 1295
BSTAR          = .48989E-3
MEAN_MOTION_DOT = .34654E-3
MEAN_MOTION_DDOT = 0

CCSDS_OMM_VERS = 2.0
CREATION_DATE  = 
ORIGINATOR     = 

OBJECT_NAME    = HTV-X1
OBJECT_ID      = 2025-241A
CENTER_NAME    = EARTH
REF_FRAME      = TEME
TIME_SYSTEM    = UTC
MEAN_ELEMENT_THEORY = SGP/SGP4

EPOCH          = 2026-01-07T20:31:08.770368
MEAN_MOTION    = 15.49160932
ECCENTRICITY   = .00076245
INCLINATION    = 51.6332
RA_OF_ASC_NODE = 13.1773
ARG_OF_PERICENTER = 352.7234
MEAN_ANOMALY   = 7.3643

EPHEMERIS_TYPE = 0
CLASSIFICATION_TYPE = U
NORAD_CAT_ID   = 66174
ELEMENT_SET_NO = 999
REV_AT_EPOCH   = 51
BSTAR          = .15591257E-3
MEAN_MOTION_DOT = .8201E-4
MEAN_MOTION_DDOT = 0

CCSDS_OMM_VERS = 2.0
CREATION_DATE  = 
ORIGINATOR     = 

OBJECT_NAME    = SZ-21 MODULE
OBJECT_ID      = 2025-246C
CENTER_NAME    = EARTH
REF_FRAME      = TEME
TIME_SYSTEM    = UTC
MEAN_ELEMENT_THEORY = SGP/SGP4

EPOCH          = 2026-01-07T20:39:08.061408
MEAN_MOTION    = 15.64106684
ECCENTRICITY   = .00014946
INCLINATION    = 41.4742
RA_OF_ASC_NODE = 216.5245
ARG_OF_PERICENTER = 84.1343
MEAN_ANOMALY   = 275.9668

EPHEMERIS_TYPE = 0
CLASSIFICATION_TYPE = U
NORAD_CAT_ID   = 66515
ELEMENT_SET_NO = 999
REV_AT_EPOCH   = 853
BSTAR          = .26191796E-3
MEAN_MOTION_DOT = .25291E-3
MEAN_MOTION_DDOT = 0

CCSDS_OMM_VERS = 2.0
CREATION_DATE  = 
ORIGINATOR     = 

OBJECT_NAME    = SHENZHOU-22
OBJECT_ID      = 2025-272A
CENTER_NAME    = EARTH
REF_FRAME      = TEME
TIME_SYSTEM    = UTC
MEAN_ELEMENT_THEORY = SGP/SGP4

EPOCH          = 2026-01-07T23:12:36.935424
MEAN_MOTION    = 15.60266689
ECCENTRICITY   = .00111719
INCLINATION    = 41.4652
RA_OF_ASC_NODE = 217.3492
ARG_OF_PERICENTER = 241.5803
MEAN_ANOMALY   = 118.3910

EPHEMERIS_TYPE = 0
CLASSIFICATION_TYPE = U
NORAD_CAT_ID   = 66645
ELEMENT_SET_NO = 999
REV_AT_EPOCH   = 26749
BSTAR          = .12466572E-3
MEAN_MOTION_DOT = .10176E-3
MEAN_MOTION_DDOT = 0

